{
    "links": {
        "self": "http://www.neowsapp.com/rest/v1/neo/3819668?api_key=iIulBulltgU6a56xZRHN4H3l9WmuAYTsLGpBGhQ2"
    },
    "id": "3819668",
    "neo_reference_id": "3819668",
    "name": "(2018 GR11)",
    "designation": "2018 GR11",
    "nasa_jpl_url": "http://ssd.jpl.nasa.gov/sbdb.cgi?sstr=3819668",
    "absolute_magnitude_h": 28.501,
    "estimated_diameter": {
        "kilometers": {
            "estimated_diameter_min": 0.0053009655,
            "estimated_diameter_max": 0.0118533192
        },
        "meters": {
            "estimated_diameter_min": 5.3009654862,
            "estimated_diameter_max": 11.8533191735
        },
        "miles": {
            "estimated_diameter_min": 0.0032938662,
            "estimated_diameter_max": 0.0073653088
        },
        "feet": {
            "estimated_diameter_min": 17.3916196057,
            "estimated_diameter_max": 38.8888436771
        }
    },
    "is_potentially_hazardous_asteroid": false,
    "close_approach_data": [
        {
            "close_approach_date": "2017-09-23",
            "close_approach_date_full": "2017-Sep-23 10:28",
            "epoch_date_close_approach": 1506162480000,
            "relative_velocity": {
                "kilometers_per_second": "8.5839470285",
                "kilometers_per_hour": "30902.2093025681",
                "miles_per_hour": "19201.4311080318"
            },
            "miss_distance": {
                "astronomical": "0.4743856046",
                "lunar": "184.5360001894",
                "kilometers": "70967076.006822202",
                "miles": "44096896.2303903076"
            },
            "orbiting_body": "Earth"
        },
        {
            "close_approach_date": "2018-04-07",
            "close_approach_date_full": "2018-Apr-07 07:52",
            "epoch_date_close_approach": 1523087520000,
            "relative_velocity": {
                "kilometers_per_second": "9.8955394429",
                "kilometers_per_hour": "35623.9419942986",
                "miles_per_hour": "22135.3321797351"
            },
            "miss_distance": {
                "astronomical": "0.0017667167",
                "lunar": "0.6872527963",
                "kilometers": "264297.055213429",
                "miles": "164226.5748221602"
            },
            "orbiting_body": "Earth"
        },
        {
            "close_approach_date": "2018-04-07",
            "close_approach_date_full": "2018-Apr-07 11:03",
            "epoch_date_close_approach": 1523098980000,
            "relative_velocity": {
                "kilometers_per_second": "10.7414249838",
                "kilometers_per_hour": "38669.1299417488",
                "miles_per_hour": "24027.4935463049"
            },
            "miss_distance": {
                "astronomical": "0.0040862629",
                "lunar": "1.5895562681",
                "kilometers": "611296.226100023",
                "miles": "379841.8613973974"
            },
            "orbiting_body": "Moon"
        },
        {
            "close_approach_date": "2020-11-02",
            "close_approach_date_full": "2020-Nov-02 05:35",
            "epoch_date_close_approach": 1604295300000,
            "relative_velocity": {
                "kilometers_per_second": "17.8511548462",
                "kilometers_per_hour": "64264.1574462217",
                "miles_per_hour": "39931.2482754037"
            },
            "miss_distance": {
                "astronomical": "0.3002520536",
                "lunar": "116.7980488504",
                "kilometers": "44917067.681685832",
                "miles": "27910171.6455432016"
            },
            "orbiting_body": "Earth"
        },
        {
            "close_approach_date": "2083-11-06",
            "close_approach_date_full": "2083-Nov-06 19:45",
            "epoch_date_close_approach": 3592755900000,
            "relative_velocity": {
                "kilometers_per_second": "15.8685843888",
                "kilometers_per_hour": "57126.9037998305",
                "miles_per_hour": "35496.4364194002"
            },
            "miss_distance": {
                "astronomical": "0.2369270387",
                "lunar": "92.1646180543",
                "kilometers": "35443780.334927569",
                "miles": "22023743.8455516922"
            },
            "orbiting_body": "Earth"
        }
    ],
    "orbital_data": {
        "orbit_id": "1",
        "orbit_determination_date": "2018-04-30 06:50:40",
        "first_observation_date": "2018-04-11",
        "last_observation_date": "2018-04-12",
        "data_arc_in_days": 1,
        "observations_used": 15,
        "orbit_uncertainty": "8",
        "minimum_orbit_intersection": ".00119044",
        "jupiter_tisserand_invariant": "5.013",
        "epoch_osculation": "2458219.5",
        "eccentricity": ".3448726868213031",
        "semi_major_axis": "1.271172565283718",
        "inclination": "7.8235716717267",
        "ascending_node_longitude": "196.6280323145743",
        "orbital_period": "523.4861473898106",
        "perihelion_distance": ".8327798672807937",
        "perihelion_argument": "290.7364276160828",
        "aphelion_distance": "1.709565263286642",
        "perihelion_time": "2458162.977825327837",
        "mean_anomaly": "38.87014581653615",
        "mean_motion": ".687697280615772",
        "equinox": "J2000",
        "orbit_class": {
            "orbit_class_type": "APO",
            "orbit_class_description": "Near-Earth asteroid orbits which cross the Earth’s orbit similar to that of 1862 Apollo",
            "orbit_class_range": "a (semi-major axis) > 1.0 AU; q (perihelion) < 1.017 AU"
        }
    },
    "is_sentry_object": false
}